NORAD_CAT_ID,OBJECT_NAME,OBJECT_TYPE,EPOCH,MEAN_MOTION,ECCENTRICITY,INCLINATION,RA_OF_ASC_NODE,ARG_OF_PERICENTER,MEAN_ANOMALY,BSTAR,MEAN_MOTION_DOT,MEAN_MOTION_DDOT,TLE_LINE0,TLE_LINE1,TLE_LINE2,SEMIMAJOR_AXIS,PERIOD,APOGEE,PERIGEE,DECAYED
52843.0,STARLINK-4188,PAYLOAD,2024-03-09 06:59:37,15.08845102,0.0001807,53.2161,73.0072,90.6803,269.4396,0.00014376,2.001e-05,0.0,0 STARLINK-4188,1 52843U 22062P   24069.29140107  .00002001  00000-0  14376-3 0  9996,2 52843  53.2161  73.0072 0001807  90.6803 269.4396 15.08845102 95527,6917.865,95.437,540.98,538.48,0.0
52843.0,STARLINK-4188,PAYLOAD,2024-03-10 06:50:23,15.08849562,0.0001903,53.2164,68.5476,93.0245,267.0965,0.00023692,3.485e-05,0.0,0 STARLINK-4188,1 52843U 22062P   24070.28499808  .00003485  00000-0  23692-3 0  9990,2 52843  53.2164  68.5476 0001903  93.0245 267.0965 15.08849562 96162,6917.851,95.437,541.033,538.4,0.0
52843.0,STARLINK-4188,PAYLOAD,2024-03-10 16:22:42,15.08845466,0.000188,53.2157,66.7604,90.5493,269.5715,0.00016442,2.33e-05,0.0,0 STARLINK-4188,1 52843U 22062P   24070.68243907  .00002330  00000-0  16442-3 0  9994,2 52843  53.2157  66.7604 0001880  90.5493 269.5715 15.08845466 96224,6917.864,95.437,541.029,538.428,0.0
52843.0,STARLINK-4188,PAYLOAD,2024-03-11 06:41:10,15.08841586,0.0001893,53.2169,64.0872,94.88,265.2408,5.25e-05,5.48e-06,0.0,0 STARLINK-4188,1 52843U 22062P   24071.27859911  .00000548  00000-0  52500-4 0  9993,2 52843  53.2169  64.0872 0001893  94.8800 265.2408 15.08841586 95824,6917.876,95.437,541.05,538.431,0.0
52843.0,STARLINK-4188,PAYLOAD,2024-03-11 16:13:29,15.08842815,0.0001807,53.2167,62.3022,94.8551,265.2648,7.7081e-05,9.39e-06,0.0,0 STARLINK-4188,1 52843U 22062P   24071.67603870  .00000939  00000-0  77081-4 0  9993,2 52843  53.2167  62.3022 0001807  94.8551 265.2648 15.08842815 96371,6917.872,95.437,540.987,538.487,0.0
52843.0,STARLINK-4188,PAYLOAD,2024-03-12 04:56:35,15.08834142,0.0002011,53.2182,59.925,99.8961,260.2258,-6.0023e-05,-1.243e-05,0.0,0 STARLINK-4188,1 52843U 22062P   24072.20596472 -.00001243  00000-0 -60023-4 0  9991,2 52843  53.2182  59.9250 0002011  99.8961 260.2258 15.08834142 96456,6917.898,95.438,541.154,538.372,0.0
52843.0,STARLINK-4188,PAYLOAD,2024-03-12 16:04:17,15.08834824,0.0002049,53.2181,57.8398,88.6113,271.5114,-1.5337e-05,-5.32e-06,0.0,0 STARLINK-4188,1 52843U 22062P   24072.66964558 -.00000532  00000-0 -15337-4 0  9993,2 52843  53.2181  57.8398 0002049  88.6113 271.5114 15.08834824 96038,6917.896,95.438,541.179,538.344,0.0
52843.0,STARLINK-4188,PAYLOAD,2024-03-13 06:22:45,15.08842389,0.0001782,53.2178,55.1631,90.0908,270.0288,5.4388e-05,5.78e-06,0.0,0 STARLINK-4188,1 52843U 22062P   24073.26580601  .00000578  00000-0  54388-4 0  9990,2 52843  53.2178  55.1631 0001782  90.0908 270.0288 15.08842389 96612,6917.873,95.437,540.971,538.505,0.0
52843.0,STARLINK-4188,PAYLOAD,2024-03-13 22:16:37,15.08828566,0.0001859,53.2166,52.1897,93.2729,266.8476,0.00026841,3.985e-05,0.0,0 STARLINK-4188,1 52843U 22062P   24073.92821448  .00003985  00000-0  26841-3 0  9997,2 52843  53.2166  52.1897 0001859  93.2729 266.8476 15.08828566 96221,6917.915,95.438,541.066,538.494,0.0
52843.0,STARLINK-4188,PAYLOAD,2024-03-14 04:38:09,15.08841129,0.0001668,53.2156,51.0027,91.1413,268.977,0.00016851,2.395e-05,0.0,0 STARLINK-4188,1 52843U 22062P   24074.19316781  .00002395  00000-0  16851-3 0  9990,2 52843  53.2156  51.0027 0001668  91.1413 268.9770 15.08841129 96262,6917.877,95.437,540.896,538.588,0.0
52843.0,STARLINK-4188,PAYLOAD,2024-03-14 07:48:55,15.08844837,0.0001753,53.2148,50.4067,97.3437,262.7754,0.00021958,3.209e-05,0.0,0 STARLINK-4188,1 52843U 22062P   24074.32564582  .00003209  00000-0  21958-3 0  9998,2 52843  53.2148  50.4067 0001753  97.3437 262.7754 15.08844837 96778,6917.866,95.437,540.943,538.518,0.0
52843.0,STARLINK-4188,PAYLOAD,2024-03-15 04:28:56,15.08840198,0.0002132,53.2187,46.5366,114.9477,245.1737,0.00011291,1.509e-05,0.0,0 STARLINK-4188,1 52843U 22062P   24075.18676875  .00001509  00000-0  11291-3 0  9992,2 52843  53.2187  46.5366 0002132 114.9477 245.1737 15.08840198 96908,6917.88,95.438,541.22,538.27,0.0
52843.0,STARLINK-4188,PAYLOAD,2024-03-15 07:39:43,15.08841653,0.0002118,53.2189,45.9413,114.1104,246.011,0.00013755,1.902e-05,0.0,0 STARLINK-4188,1 52843U 22062P   24075.31924812  .00001902  00000-0  13755-3 0  9998,2 52843  53.2189  45.9413 0002118 114.1104 246.0110 15.08841653 96439,6917.875,95.437,541.206,538.275,0.0
52843.0,STARLINK-4188,PAYLOAD,2024-03-16 07:30:29,15.0885183,0.0001906,53.2179,41.4822,96.9974,263.1235,8.785e-05,1.111e-05,0.0,0 STARLINK-4188,1 52843U 22062P   24076.31284197  .00001111  00000-0  87850-4 0  9994,2 52843  53.2179  41.4822 0001906  96.9974 263.1235 15.08851830 97076,6917.844,95.437,541.028,538.391,0.0
52843.0,STARLINK-4188,PAYLOAD,2024-03-17 02:35:07,15.08844922,0.0002169,53.2185,37.9093,131.0335,229.0845,1.1364e-05,-1.07e-06,0.0,0 STARLINK-4188,1 52843U 22062P   24077.10772302 -.00000107  00000-0  11364-4 0  9994,2 52843  53.2185  37.9093 0002169 131.0335 229.0845 15.08844922 97192,6917.865,95.437,541.231,538.23,0.0
52843.0,STARLINK-4188,PAYLOAD,2024-03-17 07:21:18,15.08808904,0.0002032,53.2192,37.0206,112.6269,247.4938,0.00082161,0.00012801,0.0,0 STARLINK-4188,1 52843U 22062P   24077.30646247  .00012801  00000-0  82161-3 0  9999,2 52843  53.2192  37.0206 0002032 112.6269 247.4938 15.08808904 97228,6917.975,95.44,541.246,538.435,0.0
52843.0,STARLINK-4188,PAYLOAD,2024-03-17 21:39:45,15.08811335,0.0002257,53.2205,34.3439,116.1033,244.0191,0.00040379,6.139e-05,0.0,0 STARLINK-4188,1 52843U 22062P   24077.90261239  .00006139  00000-0  40379-3 0  9991,2 52843  53.2205  34.3439 0002257 116.1033 244.0191 15.08811335 97314,6917.968,95.439,541.394,538.272,0.0
52843.0,STARLINK-4188,PAYLOAD,2024-03-18 04:01:17,15.08840382,0.0001861,53.2196,33.1549,105.9211,254.1987,1.4752e-05,-5.3e-07,0.0,0 STARLINK-4188,1 52843U 22062P   24078.16756809 -.00000053  00000-0  14752-4 0  9999,2 52843  53.2196  33.1549 0001861 105.9211 254.1987 15.08840382 97359,6917.879,95.438,541.032,538.457,0.0
52843.0,STARLINK-4188,PAYLOAD,2024-03-19 02:16:41,15.08846729,0.000166,53.2191,28.996,102.0912,258.0266,0.00010781,1.428e-05,0.0,0 STARLINK-4188,1 52843U 22062P   24079.09492176  .00001428  00000-0  10781-3 0  9999,2 52843  53.2191  28.9960 0001660 102.0912 258.0266 15.08846729 97495,6917.86,95.437,540.873,538.576,0.0
52843.0,STARLINK-4188,PAYLOAD,2024-03-20 02:07:31,15.08816947,0.0001827,53.2193,24.5371,95.0537,265.0663,-9.2374e-05,-1.757e-05,0.0,0 STARLINK-4188,1 52843U 22062P   24080.08856053 -.00001757  00000-0 -92374-4 0  9994,2 52843  53.2193  24.5371 0001827  95.0537 265.0663 15.08816947 97649,6917.951,95.439,541.08,538.552,0.0
52843.0,STARLINK-4188,PAYLOAD,2024-03-20 05:18:17,15.08821841,0.000206,53.2197,23.9404,115.8946,244.2259,-5.256e-05,-1.124e-05,0.0,0 STARLINK-4188,1 52843U 22062P   24080.22103700 -.00001124  00000-0 -52560-4 0  9995,2 52843  53.2197  23.9404 0002060 115.8946 244.2259 15.08821841 97669,6917.936,95.439,541.226,538.376,0.0
52843.0,STARLINK-4188,PAYLOAD,2024-03-21 03:33:38,15.08866836,0.0001676,53.2183,19.7777,98.9577,261.1605,0.00040099,6.104e-05,0.0,0 STARLINK-4188,1 52843U 22062P   24081.14836682  .00006104  00000-0  40099-3 0  9993,2 52843  53.2183  19.7777 0001676  98.9577 261.1605 15.08866836 97805,6917.798,95.436,540.823,538.504,0.0
52843.0,STARLINK-4188,PAYLOAD,2024-03-21 13:05:58,15.08850801,0.0002017,53.2198,17.9919,82.5797,277.5424,0.00054583,8.412e-05,0.0,0 STARLINK-4188,1 52843U 22062P   24081.54581995  .00008412  00000-0  54583-3 0  9998,2 52843  53.2198  17.9919 0002017  82.5797 277.5424 15.08850801 97863,6917.847,95.437,541.108,538.317,0.0
52843.0,STARLINK-4188,PAYLOAD,2024-03-21 19:27:31,15.08835167,9.45e-05,53.2174,16.8044,113.6793,246.4299,8.4697e-05,1.06e-05,0.0,0 STARLINK-4188,1 52843U 22062P   24081.81078543  .00001060  00000-0  84697-4 0  9990,2 52843  53.2174  16.8044 0000945 113.6793 246.4299 15.08835167 97902,6917.895,95.438,540.414,539.106,0.0
52843.0,STARLINK-4188,PAYLOAD,2024-03-22 04:59:48,15.08873872,0.0001528,53.2179,15.0184,119.9983,240.1161,0.00054051,8.333e-05,0.0,0 STARLINK-4188,1 52843U 22062P   24082.20820145  .00008333  00000-0  54051-3 0  9997,2 52843  53.2179  15.0184 0001528 119.9983 240.1161 15.08873872 97961,6917.777,95.435,540.699,538.585,0.0
52843.0,STARLINK-4188,PAYLOAD,2024-03-23 04:50:35,15.08856583,0.0001492,53.2191,10.5544,96.4911,263.6251,-9.8384e-05,-1.854e-05,0.0,0 STARLINK-4188,1 52843U 22062P   24083.20180309 -.00001854  00000-0 -98384-4 0  9990,2 52843  53.2191  10.5544 0001492  96.4911 263.6251 15.08856583 98113,6917.83,95.437,540.727,538.663,0.0
52843.0,STARLINK-4188,PAYLOAD,2024-03-23 19:09:04,15.08832547,6.86e-05,53.2189,7.8832,107.8303,252.2764,-3.9168e-06,-3.5e-06,0.0,0 STARLINK-4188,1 52843U 22062P   24083.79797211 -.00000350  00000-0 -39168-5 0  9996,2 52843  53.2189   7.8832 0000686 107.8303 252.2764 15.08832547 98202,6917.903,95.438,540.243,539.294,0.0
52843.0,STARLINK-4188,PAYLOAD,2024-03-23 22:19:50,15.08840486,0.0001303,53.2172,7.2913,115.7109,244.4018,5.866e-05,6.46e-06,0.0,0 STARLINK-4188,1 52843U 22062P   24083.93044865  .00000646  00000-0  58660-4 0  9995,2 52843  53.2172   7.2913 0001303 115.7109 244.4018 15.08840486 97730,6917.879,95.438,540.645,538.843,0.0
52843.0,STARLINK-4188,PAYLOAD,2024-03-24 04:41:22,15.0885205,0.0001636,53.2182,6.096,127.8098,232.3043,0.00046705,7.155e-05,0.0,0 STARLINK-4188,1 52843U 22062P   24084.19540128  .00007155  00000-0  46705-3 0  9995,2 52843  53.2182   6.0960 0001636 127.8098 232.3043 15.08852050 98263,6917.844,95.437,540.84,538.577,0.0
52843.0,STARLINK-4188,PAYLOAD,2024-03-24 18:59:51,15.08846207,0.0001385,53.2192,3.4132,111.2303,248.8837,0.00013806,1.91e-05,0.0,0 STARLINK-4188,1 52843U 22062P   24084.79156657  .00001910  00000-0  13806-3 0  9990,2 52843  53.2192   3.4132 0001385 111.2303 248.8837 15.08846207 98353,6917.861,95.437,540.685,538.768,0.0
